[{"OBJECT_NAME":"IRIDIUM 152","OBJECT_ID":"2018-047D","EPOCH":"2026-04-27T05:46:26.240736","MEAN_MOTION":14.3421778,"ECCENTRICITY":0.00022128,"INCLINATION":86.3919,"RA_OF_ASC_NODE":109.6378,"ARG_OF_PERICENTER":91.7978,"MEAN_ANOMALY":268.3471,"EPHEMERIS_TYPE":0,"CLASSIFICATION_TYPE":"U","NORAD_CAT_ID":43479,"ELEMENT_SET_NO":999,"REV_AT_EPOCH":41518,"BSTAR":1.1953788e-5,"MEAN_MOTION_DOT":5.3e-7,"MEAN_MOTION_DDOT":0},{"OBJECT_NAME":"IRIDIUM 147","OBJECT_ID":"2018-047E","EPOCH":"2026-04-27T05:55:34.237920","MEAN_MOTION":14.3421776,"ECCENTRICITY":0.00023447,"INCLINATION":86.3921,"RA_OF_ASC_NODE":109.6396,"ARG_OF_PERICENTER":86.771,"MEAN_ANOMALY":273.3754,"EPHEMERIS_TYPE":0,"CLASSIFICATION_TYPE":"U","NORAD_CAT_ID":43480,"ELEMENT_SET_NO":999,"REV_AT_EPOCH":41518,"BSTAR":1.5348185e-5,"MEAN_MOTION_DOT":6.3e-7,"MEAN_MOTION_DDOT":0},{"OBJECT_NAME":"IRIDIUM 110","OBJECT_ID":"2018-047F","EPOCH":"2026-04-27T06:04:42.089952","MEAN_MOTION":14.34217551,"ECCENTRICITY":0.0001852,"INCLINATION":86.3929,"RA_OF_ASC_NODE":109.7275,"ARG_OF_PERICENTER":95.5004,"MEAN_ANOMALY":264.6403,"EPHEMERIS_TYPE":0,"CLASSIFICATION_TYPE":"U","NORAD_CAT_ID":43481,"ELEMENT_SET_NO":999,"REV_AT_EPOCH":41517,"BSTAR":-3.267725e-6,"MEAN_MOTION_DOT":1.1e-7,"MEAN_MOTION_DDOT":0},{"OBJECT_NAME":"IRIDIUM 162","OBJECT_ID":"2018-047G","EPOCH":"2026-04-27T06:34:21.028800","MEAN_MOTION":14.43281693,"ECCENTRICITY":0.00024091,"INCLINATION":86.4444,"RA_OF_ASC_NODE":109.6549,"ARG_OF_PERICENTER":91.577,"MEAN_ANOMALY":268.5707,"EPHEMERIS_TYPE":0,"CLASSIFICATION_TYPE":"U","NORAD_CAT_ID":43482,"ELEMENT_SET_NO":999,"REV_AT_EPOCH":41778,"BSTAR":5.0146715e-5,"MEAN_MOTION_DOT":1.89e-6,"MEAN_MOTION_DDOT":0},{"OBJECT_NAME":"IRIDIUM 160","OBJECT_ID":"2018-061A","EPOCH":"2026-04-27T06:27:10.484640","MEAN_MOTION":14.34217359,"ECCENTRICITY":0.00021214,"INCLINATION":86.3941,"RA_OF_ASC_NODE":78.0841,"ARG_OF_PERICENTER":86.1133,"MEAN_ANOMALY":274.0306,"EPHEMERIS_TYPE":0,"CLASSIFICATION_TYPE":"U","NORAD_CAT_ID":43569,"ELEMENT_SET_NO":999,"REV_AT_EPOCH":40607,"BSTAR":9.925145e-6,"MEAN_MOTION_DOT":4.8e-7,"MEAN_MOTION_DDOT":0},{"OBJECT_NAME":"IRIDIUM 166","OBJECT_ID":"2018-061B","EPOCH":"2026-04-27T07:03:44.137440","MEAN_MOTION":14.34218623,"ECCENTRICITY":0.00023571,"INCLINATION":86.3939,"RA_OF_ASC_NODE":78.0246,"ARG_OF_PERICENTER":83.9688,"MEAN_ANOMALY":276.1777,"EPHEMERIS_TYPE":0,"CLASSIFICATION_TYPE":"U","NORAD_CAT_ID":43570,"ELEMENT_SET_NO":999,"REV_AT_EPOCH":40610,"BSTAR":9.559816e-5,"MEAN_MOTION_DOT":2.88e-6,"MEAN_MOTION_DDOT":0},{"OBJECT_NAME":"IRIDIUM 158","OBJECT_ID":"2018-061C","EPOCH":"2026-04-27T06:18:02.475360","MEAN_MOTION":14.34217538,"ECCENTRICITY":0.00021624,"INCLINATION":86.3941,"RA_OF_ASC_NODE":78.0481,"ARG_OF_PERICENTER":89.3452,"MEAN_ANOMALY":270.7992,"EPHEMERIS_TYPE":0,"CLASSIFICATION_TYPE":"U","NORAD_CAT_ID":43571,"ELEMENT_SET_NO":999,"REV_AT_EPOCH":40606,"BSTAR":-1.640362e-6,"MEAN_MOTION_DOT":1.5e-7,"MEAN_MOTION_DDOT":0},{"OBJECT_NAME":"IRIDIUM 165","OBJECT_ID":"2018-061D","EPOCH":"2026-04-27T06:54:34.496928","MEAN_MOTION":14.34217646,"ECCENTRICITY":0.00023453,"INCLINATION":86.3941,"RA_OF_ASC_NODE":78.0826,"ARG_OF_PERICENTER":83.8398,"MEAN_ANOMALY":276.3065,"EPHEMERIS_TYPE":0,"CLASSIFICATION_TYPE":"U","NORAD_CAT_ID":43572,"ELEMENT_SET_NO":999,"REV_AT_EPOCH":40609,"BSTAR":5.927717e-6,"MEAN_MOTION_DOT":3.6e-7,"MEAN_MOTION_DDOT":0},{"OBJECT_NAME":"IRIDIUM 155","OBJECT_ID":"2018-061E","EPOCH":"2026-04-27T04:19:18.497280","MEAN_MOTION":14.34217697,"ECCENTRICITY":0.00023959,"INCLINATION":86.3937,"RA_OF_ASC_NODE":77.9992,"ARG_OF_PERICENTER":87.7892,"MEAN_ANOMALY":272.3578,"EPHEMERIS_TYPE":0,"CLASSIFICATION_TYPE":"U","NORAD_CAT_ID":43573,"ELEMENT_SET_NO":999,"REV_AT_EPOCH":40604,"BSTAR":1.595791e-5,"MEAN_MOTION_DOT":6.4e-7,"MEAN_MOTION_DDOT":0},{"OBJECT_NAME":"IRIDIUM 154","OBJECT_ID":"2018-061F","EPOCH":"2026-04-27T07:12:50.474016","MEAN_MOTION":14.34217809,"ECCENTRICITY":0.00023133,"INCLINATION":86.3941,"RA_OF_ASC_NODE":78.08,"ARG_OF_PERICENTER":82.8229,"MEAN_ANOMALY":277.323,"EPHEMERIS_TYPE":0,"CLASSIFICATION_TYPE":"U","NORAD_CAT_ID":43574,"ELEMENT_SET_NO":999,"REV_AT_EPOCH":40611,"BSTAR":2.4568974e-5,"MEAN_MOTION_DOT":8.9e-7,"MEAN_MOTION_DDOT":0},{"OBJECT_NAME":"IRIDIUM 163","OBJECT_ID":"2018-061G","EPOCH":"2026-04-27T06:45:26.409024","MEAN_MOTION":14.34218922,"ECCENTRICITY":0.00022393,"INCLINATION":86.3939,"RA_OF_ASC_NODE":78.0048,"ARG_OF_PERICENTER":89.348,"MEAN_ANOMALY":270.7973,"EPHEMERIS_TYPE":0,"CLASSIFICATION_TYPE":"U","NORAD_CAT_ID":43575,"ELEMENT_SET_NO":999,"REV_AT_EPOCH":40608,"BSTAR":7.4969436e-5,"MEAN_MOTION_DOT":2.3e-6,"MEAN_MOTION_DDOT":0},{"OBJECT_NAME":"IRIDIUM 156","OBJECT_ID":"2018-061H","EPOCH":"2026-04-27T06:08:54.530016","MEAN_MOTION":14.34217643,"ECCENTRICITY":0.0002422,"INCLINATION":86.3939,"RA_OF_ASC_NODE":78.0227,"ARG_OF_PERICENTER":86.8891,"MEAN_ANOMALY":273.2582,"EPHEMERIS_TYPE":0,"CLASSIFICATION_TYPE":"U","NORAD_CAT_ID":43576,"ELEMENT_SET_NO":999,"REV_AT_EPOCH":40607,"BSTAR":8.593212e-6,"MEAN_MOTION_DOT":4.4e-7,"MEAN_MOTION_DDOT":0},{"OBJECT_NAME":"IRIDIUM 164","OBJECT_ID":"2018-061J","EPOCH":"2026-04-27T04:01:02.471808","MEAN_MOTION":14.34216929,"ECCENTRICITY":0.00022385,"INCLINATION":86.394,"RA_OF_ASC_NODE":78.0992,"ARG_OF_PERICENTER":81.1745,"MEAN_ANOMALY":278.9704,"EPHEMERIS_TYPE":0,"CLASSIFICATION_TYPE":"U","NORAD_CAT_ID":43577,"ELEMENT_SET_NO":999,"REV_AT_EPOCH":40610,"BSTAR":4.8656685e-5,"MEAN_MOTION_DOT":1.56e-6,"MEAN_MOTION_DDOT":0},{"OBJECT_NAME":"IRIDIUM 159","OBJECT_ID":"2018-061K","EPOCH":"2026-04-27T06:36:18.448128","MEAN_MOTION":14.34217566,"ECCENTRICITY":0.00020531,"INCLINATION":86.3939,"RA_OF_ASC_NODE":77.9924,"ARG_OF_PERICENTER":87.4688,"MEAN_ANOMALY":272.6743,"EPHEMERIS_TYPE":0,"CLASSIFICATION_TYPE":"U","NORAD_CAT_ID":43578,"ELEMENT_SET_NO":999,"REV_AT_EPOCH":40608,"BSTAR":-1.2732575e-5,"MEAN_MOTION_DOT":-1.6e-7,"MEAN_MOTION_DDOT":0},{"OBJECT_NAME":"IRIDIUM 180","OBJECT_ID":"2019-002A","EPOCH":"2026-04-27T04:55:06.831552","MEAN_MOTION":14.34218576,"ECCENTRICITY":0.00020879,"INCLINATION":86.4014,"RA_OF_ASC_NODE":14.9032,"ARG_OF_PERICENTER":85.7328,"MEAN_ANOMALY":274.4107,"EPHEMERIS_TYPE":0,"CLASSIFICATION_TYPE":"U","NORAD_CAT_ID":43922,"ELEMENT_SET_NO":999,"REV_AT_EPOCH":38168,"BSTAR":6.0360434e-5,"MEAN_MOTION_DOT":1.89e-6,"MEAN_MOTION_DDOT":0},{"OBJECT_NAME":"IRIDIUM 176","OBJECT_ID":"2019-002B","EPOCH":"2026-04-27T04:23:48.308064","MEAN_MOTION":14.72259709,"ECCENTRICITY":0.00024739,"INCLINATION":86.6134,"RA_OF_ASC_NODE":14.8631,"ARG_OF_PERICENTER":82.1181,"MEAN_ANOMALY":278.0317,"EPHEMERIS_TYPE":0,"CLASSIFICATION_TYPE":"U","NORAD_CAT_ID":43923,"ELEMENT_SET_NO":999,"REV_AT_EPOCH":39174,"BSTAR":0.00013169103,"MEAN_MOTION_DOT":8.55e-6,"MEAN_MOTION_DDOT":0},{"OBJECT_NAME":"IRIDIUM 168","OBJECT_ID":"2019-002C","EPOCH":"2026-04-27T06:26:27.895488","MEAN_MOTION":14.34220644,"ECCENTRICITY":0.00021482,"INCLINATION":86.4016,"RA_OF_ASC_NODE":14.9525,"ARG_OF_PERICENTER":84.537,"MEAN_ANOMALY":275.6071,"EPHEMERIS_TYPE":0,"CLASSIFICATION_TYPE":"U","NORAD_CAT_ID":43924,"ELEMENT_SET_NO":999,"REV_AT_EPOCH":38167,"BSTAR":8.6839168e-5,"MEAN_MOTION_DOT":2.63e-6,"MEAN_MOTION_DDOT":0}]
