IRIDIUM 152             
1 43479U 18047D   26117.24058149  .00000053  00000+0  11954-4 0  9998
2 43479  86.3919 109.6378 0002212  91.7978 268.3471 14.34217780415184
IRIDIUM 147             
1 43480U 18047E   26117.24692405  .00000063  00000+0  15348-4 0  9991
2 43480  86.3921 109.6396 0002344  86.7710 273.3754 14.34217760415181
IRIDIUM 110             
1 43481U 18047F   26117.25326493  .00000011  00000+0 -32677-5 0  9993
2 43481  86.3929 109.7275 0001852  95.5004 264.6403 14.34217551415175
IRIDIUM 162             
1 43482U 18047G   26117.27385450  .00000189  00000+0  50147-4 0  9990
2 43482  86.4444 109.6549 0002409  91.5770 268.5707 14.43281693417784
IRIDIUM 160             
1 43569U 18061A   26117.26887135  .00000048  00000+0  99251-5 0  9992
2 43569  86.3941  78.0841 0002121  86.1133 274.0306 14.34217359406074
IRIDIUM 166             
1 43570U 18061B   26117.29426085  .00000288  00000+0  95598-4 0  9995
2 43570  86.3939  78.0246 0002357  83.9688 276.1777 14.34218623406107
IRIDIUM 158             
1 43571U 18061C   26117.26252865  .00000015  00000+0 -16404-5 0  9995
2 43571  86.3941  78.0481 0002162  89.3452 270.7992 14.34217538406063
IRIDIUM 165             
1 43572U 18061D   26117.28789927  .00000036  00000+0  59277-5 0  9999
2 43572  86.3941  78.0826 0002345  83.8398 276.3065 14.34217646406094
IRIDIUM 155             
1 43573U 18061E   26117.18007520  .00000064  00000+0  15958-4 0  9999
2 43573  86.3937  77.9992 0002395  87.7892 272.3578 14.34217697406045
IRIDIUM 154             
1 43574U 18061F   26117.30058419  .00000089  00000+0  24569-4 0  9992
2 43574  86.3941  78.0800 0002313  82.8229 277.3230 14.34217809406114
IRIDIUM 163             
1 43575U 18061G   26117.28155566  .00000230  00000+0  74969-4 0  9998
2 43575  86.3939  78.0048 0002239  89.3480 270.7973 14.34218922406088
IRIDIUM 156             
1 43576U 18061H   26117.25618669  .00000044  00000+0  85932-5 0  9990
2 43576  86.3939  78.0227 0002422  86.8891 273.2582 14.34217643406072
IRIDIUM 164             
1 43577U 18061J   26117.16738972  .00000156  00000+0  48657-4 0  9997
2 43577  86.3940  78.0992 0002238  81.1745 278.9704 14.34216929406103
IRIDIUM 159             
1 43578U 18061K   26117.27521352 -.00000016  00000+0 -12733-4 0  9995
2 43578  86.3939  77.9924 0002053  87.4688 272.6743 14.34217566406084
IRIDIUM 180             
1 43922U 19002A   26117.20494018  .00000189  00000+0  60360-4 0  9993
2 43922  86.4014  14.9032 0002087  85.7328 274.4107 14.34218576381686
IRIDIUM 176             
1 43923U 19002B   26117.18319801  .00000855  00000+0  13169-3 0  9991
2 43923  86.6134  14.8631 0002473  82.1181 278.0317 14.72259709391749
IRIDIUM 168             
1 43924U 19002C   26117.26837842  .00000263  00000+0  86839-4 0  9999
2 43924  86.4016  14.9525 0002148  84.5370 275.6071 14.34220644381670
